GLOBALSTAR M068         
1 32266U 07048D   25117.24761846 -.00000051  00000+0  29456-3 0  9997
2 32266  51.9870  97.5351 0001219  27.7793 345.6884 12.62822018811122
GLOBALSTAR M079         
1 37188U 10054A   25117.57400741 -.00000095  00000+0  49082-4 0  9992
2 37188  52.0040 293.8606 0000948 121.6777 280.3741 12.62273510670069
GLOBALSTAR M074         
1 37189U 10054B   25117.52017238 -.00000092  00000+0  66388-4 0  9998
2 37189  52.0019 293.3561 0000639 107.4102 288.5401 12.62274568670665
GLOBALSTAR M076         
1 37190U 10054C   25117.89146662 -.00000072  00000+0  17470-3 0  9999
2 37190  52.0028 292.3898 0000652 125.2114  40.5231 12.62261960670787
GLOBALSTAR M077         
1 37191U 10054D   25117.54643919 -.00000103  00000+0  35355-5 0  9998
2 37191  52.0066 250.2827 0000668 123.0671 333.0227 12.62273612671497
GLOBALSTAR M075         
1 37192U 10054E   25117.63332880 -.00000079  00000+0  13857-3 0  9994
2 37192  51.9965 335.4625 0000727  89.1388 282.3467 12.62264043669463
GLOBALSTAR M073         
1 37193U 10054F   25117.57457365 -.00000107  00000+0 -16502-4 0  9998
2 37193  52.0055 249.4214 0000695 132.4391 330.6140 12.62270782671447
GLOBALSTAR M083         
1 37739U 11033A   25117.68039771 -.00000067  00000+0  20364-3 0  9995
2 37739  51.9847 197.8999 0000583 126.2761  38.4723 12.62263419640832
GLOBALSTAR M088         
1 37740U 11033B   25117.22450521 -.00000094  00000+0  51916-4 0  9995
2 37740  51.9717 104.8182 0000335  70.8241 302.3365 12.62265886635967
GLOBALSTAR M091         
1 37741U 11033C   25117.79289590 -.00000108  00000+0 -24397-4 0  9994
2 37741  52.0005  66.5524 0000698  78.4643 297.9892 12.62267340637082
GLOBALSTAR M085         
1 37742U 11033D   25116.92268946 -.00000088  00000+0  87526-4 0  9990
2 37742  51.9895  20.2870 0000848  83.8588 356.5412 12.62267724637710
GLOBALSTAR M081         
1 37743U 11033E   25117.65048638 -.00000080  00000+0  13169-3 0  9999
2 37743  51.9990  20.8267 0000657  93.1388 295.6736 12.62263090637841
GLOBALSTAR M089         
1 37744U 11033F   25117.53225081 -.00000068  00000+0  20011-3 0  9996
2 37744  51.9952 335.4255 0000542  85.2416 306.8418 12.62269307638298
GLOBALSTAR M084         
1 38040U 11080A   25117.54141899 -.00000063  00000+0  22988-3 0  9993
2 38040  51.9999 202.6578 0000187 166.8678 206.2277 12.62265532616279
GLOBALSTAR M080         
1 38041U 11080B   25117.61987116 -.00000078  00000+0  14135-3 0  9993
2 38041  52.0052 203.9928 0000750  91.1457  48.9222 12.62262323616407
GLOBALSTAR M082         
1 38042U 11080C   25117.55925437 -.00000059  00000+0  25148-3 0  9990
2 38042  52.0055 159.6333 0000617  92.1346  62.3754 12.62265848617101
GLOBALSTAR M092         
1 38043U 11080D   25117.51540562 -.00000086  00000+0  99837-4 0  9996
2 38043  52.0080 250.1393 0000620 110.7978 324.7082 12.62263780615554
GLOBALSTAR M090         
1 38044U 11080E   25117.50910437 -.00000060  00000+0  24664-3 0  9995
2 38044  51.9864 153.6588 0000396 109.7921  56.6922 12.62269903617214
GLOBALSTAR M086         
1 38045U 11080F   25117.53212839 -.00000058  00000+0  25325-3 0  9992
2 38045  51.9874 154.1357 0000944 192.6957 318.8801 12.62269959617169
GLOBALSTAR M097         
1 39072U 13005A   25117.12943680 -.00000129  00000+0 -13963-3 0  9997
2 39072  52.0051  69.8537 0000456  91.7766 268.3153 12.62271699564362
GLOBALSTAR M093         
1 39073U 13005B   25117.34038260 -.00000111  00000+0 -39884-4 0  9993
2 39073  51.9819  62.5944 0000527  83.3765 276.7162 12.62264014564344
GLOBALSTAR M094         
1 39074U 13005C   25117.57804508 -.00000069  00000+0  19654-3 0  9998
2 39074  51.9979 336.2062 0000995 107.7398 252.3577 12.62270289565988
GLOBALSTAR M096         
1 39075U 13005D   25117.43294290 -.00000084  00000+0  10955-3 0  9997
2 39075  52.0099  25.1214 0000866  90.7293 269.3673 12.62270559564882
GLOBALSTAR M078         
1 39076U 13005E   25117.40619330 -.00000105  00000+0 -74908-5 0  9996
2 39076  51.9853 109.7791 0001220  69.0601 291.0396 12.62261599563501
GLOBALSTAR M095         
1 39077U 13005F   25117.90783784 -.00000103  00000+0  32175-5 0  9994
2 39077  51.9781 105.4737 0000764  90.0598 270.0355 12.62269471563785
GLOBALSTAR M087         
1 52888U 22064A   25117.54253257 -.00000097  00000+0  36732-4 0  9995
2 52888  51.9785 247.9901 0000826 117.4732 242.6218 12.62271361138649
